KUIPER-00053            
1 64513U 25134P   25288.02131808  .00005088  00000+0  47593-3 0  9993
2 64513  51.8951 147.6857 0003098 171.6229 188.4793 14.95594032 18636
KUIPER-00054            
1 64514U 25134Q   25289.00002315 -.01929067  00000+0 -12948+0 0  9990
2 64514  51.8846 140.2431 0007537 166.8058 120.0951 15.10026560  1921
KUIPER-00055            
1 64515U 25134R   25288.86471615  .00018212  00000+0  82931-3 0  9998
2 64515  51.8887 140.0983 0000761 354.7521   5.3450 15.20732849 18812
KUIPER-00056            
1 64516U 25134S   25289.00002315 -.00001872  00000+0 -16843-3 0  9998
2 64516  51.8948 144.1479 0002177 172.4425  97.3772 14.89753018  5782
KUIPER-00057            
1 64517U 25134T   25288.91488244  .00005344  00000+0  72904-3 0  9993
2 64517  51.8989 151.8028 0009647 158.1472 201.9903 14.79938967 18651
KUIPER-00058            
1 64518U 25134U   25289.00002315  .00022142  00000+0  23976-2 0  9995
2 64518  51.8943 145.5203 0004153 185.8209 118.4188 14.88147148  5576
KUIPER-00059            
1 64519U 25134V   25289.00002315 -.01381309  00000+0 -11231+0 0  9990
2 64519  51.8934 141.6547 0001701 334.5991  85.5076 15.02431444  5316
KUIPER-00060            
1 64520U 25134W   25289.00002315 -.01921896  00000+0 -18540+0 0  9993
2 64520  51.8931 142.0237 0002774 201.6440 267.8406 14.95926588  2341
